GLOBALSTAR M067         
1 32263U 07048A   25258.80946476 -.00000088  00000+0  72578-4 0  9990
2 32263  51.9715 130.7631 0001112 132.6456 307.5703 12.40677822820733
GLOBALSTAR M070         
1 32264U 07048B   25258.58369331 -.00000090  00000+0  75088-4 0  9997
2 32264  51.9738 213.1171 0000521  37.4261 134.2662 12.62322523825084
GLOBALSTAR M066         
1 32265U 07048C   25258.82397976 -.00000088  00000+0  57259-4 0  9998
2 32265  51.9579 125.5257 0004432 176.9636 263.8689 12.30376681826458
GLOBALSTAR M068         
1 32266U 07048D   25258.60772047 -.00000070  00000+0  18899-3 0  9998
2 32266  51.9909  26.6217 0000855  21.4486 352.2560 12.62828445828981
GLOBALSTAR M079         
1 37188U 10054A   25258.62935266 -.00000087  00000+0  92690-4 0  9993
2 37188  52.0023 224.4659 0000573  88.9480  82.7111 12.62266700687873
GLOBALSTAR M074         
1 37189U 10054B   25258.65587997 -.00000097  00000+0  36619-4 0  9991
2 37189  52.0000 223.6947 0000262  75.0066  96.2895 12.62271321688484
GLOBALSTAR M076         
1 37190U 10054C   25258.68222086 -.00000090  00000+0  76769-4 0  9994
2 37190  52.0015 223.7937 0000394 108.5111  62.4247 12.62265252688203
GLOBALSTAR M077         
1 37191U 10054D   25258.50835611 -.00000097  00000+0  39299-4 0  9994
2 37191  52.0067 181.1894 0000559  64.8216 106.5588 12.62323327688557
