<?xml version="1.0" encoding="UTF-8"?>
<ndm xmlns:xsi="http://www.w3.org/2001/XMLSchema-instance" xsi:noNamespaceSchemaLocation="https://sanaregistry.org/r/ndmxml_unqualified/ndmxml-2.0.0-master-2.0.xsd">
<omm id="CCSDS_OMM_VERS" version="2.0">
<header><CREATION_DATE/><ORIGINATOR/></header><body><segment><metadata><OBJECT_NAME>GLOBALSTAR M067</OBJECT_NAME><OBJECT_ID>2007-048A</OBJECT_ID><CENTER_NAME>EARTH</CENTER_NAME><REF_FRAME>TEME</REF_FRAME><TIME_SYSTEM>UTC</TIME_SYSTEM><MEAN_ELEMENT_THEORY>SGP4</MEAN_ELEMENT_THEORY></metadata><data><meanElements><EPOCH>2025-09-15T19:25:37.755264</EPOCH><MEAN_MOTION>12.40677822</MEAN_MOTION><ECCENTRICITY>.00011126</ECCENTRICITY><INCLINATION>51.9715</INCLINATION><RA_OF_ASC_NODE>130.7631</RA_OF_ASC_NODE><ARG_OF_PERICENTER>132.6456</ARG_OF_PERICENTER><MEAN_ANOMALY>307.5703</MEAN_ANOMALY></meanElements><tleParameters><EPHEMERIS_TYPE>0</EPHEMERIS_TYPE><CLASSIFICATION_TYPE>U</CLASSIFICATION_TYPE><NORAD_CAT_ID>32263</NORAD_CAT_ID><ELEMENT_SET_NO>999</ELEMENT_SET_NO><REV_AT_EPOCH>82073</REV_AT_EPOCH><BSTAR>.72577653E-4</BSTAR><MEAN_MOTION_DOT>-.88E-6</MEAN_MOTION_DOT><MEAN_MOTION_DDOT>0</MEAN_MOTION_DDOT></tleParameters></data></segment></body></omm>
<omm id="CCSDS_OMM_VERS" version="2.0">
<header><CREATION_DATE/><ORIGINATOR/></header><body><segment><metadata><OBJECT_NAME>GLOBALSTAR M070</OBJECT_NAME><OBJECT_ID>2007-048B</OBJECT_ID><CENTER_NAME>EARTH</CENTER_NAME><REF_FRAME>TEME</REF_FRAME><TIME_SYSTEM>UTC</TIME_SYSTEM><MEAN_ELEMENT_THEORY>SGP4</MEAN_ELEMENT_THEORY></metadata><data><meanElements><EPOCH>2025-09-15T14:00:31.101984</EPOCH><MEAN_MOTION>12.62322523</MEAN_MOTION><ECCENTRICITY>.00005215</ECCENTRICITY><INCLINATION>51.9738</INCLINATION><RA_OF_ASC_NODE>213.1171</RA_OF_ASC_NODE><ARG_OF_PERICENTER>37.4261</ARG_OF_PERICENTER><MEAN_ANOMALY>134.2662</MEAN_ANOMALY></meanElements><tleParameters><EPHEMERIS_TYPE>0</EPHEMERIS_TYPE><CLASSIFICATION_TYPE>U</CLASSIFICATION_TYPE><NORAD_CAT_ID>32264</NORAD_CAT_ID><ELEMENT_SET_NO>999</ELEMENT_SET_NO><REV_AT_EPOCH>82508</REV_AT_EPOCH><BSTAR>.75087924E-4</BSTAR><MEAN_MOTION_DOT>-.9E-6</MEAN_MOTION_DOT><MEAN_MOTION_DDOT>0</MEAN_MOTION_DDOT></tleParameters></data></segment></body></omm>
<omm id="CCSDS_OMM_VERS" version="2.0">
<header><CREATION_DATE/><ORIGINATOR/></header><body><segment><metadata><OBJECT_NAME>GLOBALSTAR M066</OBJECT_NAME><OBJECT_ID>2007-048C</OBJECT_ID><CENTER_NAME>EARTH</CENTER_NAME><REF_FRAME>TEME</REF_FRAME><TIME_SYSTEM>UTC</TIME_SYSTEM><MEAN_ELEMENT_THEORY>SGP4</MEAN_ELEMENT_THEORY></metadata><data><meanElements><EPOCH>2025-09-15T19:46:31.851264</EPOCH><MEAN_MOTION>12.30376681</MEAN_MOTION><ECCENTRICITY>.00044329</ECCENTRICITY><INCLINATION>51.9579</INCLINATION><RA_OF_ASC_NODE>125.5257</RA_OF_ASC_NODE><ARG_OF_PERICENTER>176.9636</ARG_OF_PERICENTER><MEAN_ANOMALY>263.8689</MEAN_ANOMALY></meanElements><tleParameters><EPHEMERIS_TYPE>0</EPHEMERIS_TYPE><CLASSIFICATION_TYPE>U</CLASSIFICATION_TYPE><NORAD_CAT_ID>32265</NORAD_CAT_ID><ELEMENT_SET_NO>999</ELEMENT_SET_NO><REV_AT_EPOCH>82645</REV_AT_EPOCH><BSTAR>.57259363E-4</BSTAR><MEAN_MOTION_DOT>-.88E-6</MEAN_MOTION_DOT><MEAN_MOTION_DDOT>0</MEAN_MOTION_DDOT></tleParameters></data></segment></body></omm>
<omm id="CCSDS_OMM_VERS" version="2.0">
<header><CREATION_DATE/><ORIGINATOR/></header><body><segment><metadata><OBJECT_NAME>GLOBALSTAR M068</OBJECT_NAME><OBJECT_ID>2007-048D</OBJECT_ID><CENTER_NAME>EARTH</CENTER_NAME><REF_FRAME>TEME</REF_FRAME><TIME_SYSTEM>UTC</TIME_SYSTEM><MEAN_ELEMENT_THEORY>SGP4</MEAN_ELEMENT_THEORY></metadata><data><meanElements><EPOCH>2025-09-15T14:35:07.048608</EPOCH><MEAN_MOTION>12.62828445</MEAN_MOTION><ECCENTRICITY>.00008558</ECCENTRICITY><INCLINATION>51.9909</INCLINATION><RA_OF_ASC_NODE>26.6217</RA_OF_ASC_NODE><ARG_OF_PERICENTER>21.4486</ARG_OF_PERICENTER><MEAN_ANOMALY>352.2560</MEAN_ANOMALY></meanElements><tleParameters><EPHEMERIS_TYPE>0</EPHEMERIS_TYPE><CLASSIFICATION_TYPE>U</CLASSIFICATION_TYPE><NORAD_CAT_ID>32266</NORAD_CAT_ID><ELEMENT_SET_NO>999</ELEMENT_SET_NO><REV_AT_EPOCH>82898</REV_AT_EPOCH><BSTAR>.18898918E-3</BSTAR><MEAN_MOTION_DOT>-.7E-6</MEAN_MOTION_DOT><MEAN_MOTION_DDOT>0</MEAN_MOTION_DDOT></tleParameters></data></segment></body></omm>
<omm id="CCSDS_OMM_VERS" version="2.0">
<header><CREATION_DATE/><ORIGINATOR/></header><body><segment><metadata><OBJECT_NAME>GLOBALSTAR M079</OBJECT_NAME><OBJECT_ID>2010-054A</OBJECT_ID><CENTER_NAME>EARTH</CENTER_NAME><REF_FRAME>TEME</REF_FRAME><TIME_SYSTEM>UTC</TIME_SYSTEM><MEAN_ELEMENT_THEORY>SGP4</MEAN_ELEMENT_THEORY></metadata><data><meanElements><EPOCH>2025-09-15T15:06:16.069824</EPOCH><MEAN_MOTION>12.62266700</MEAN_MOTION><ECCENTRICITY>.00005731</ECCENTRICITY><INCLINATION>52.0023</INCLINATION><RA_OF_ASC_NODE>224.4659</RA_OF_ASC_NODE><ARG_OF_PERICENTER>88.9480</ARG_OF_PERICENTER><MEAN_ANOMALY>82.7111</MEAN_ANOMALY></meanElements><tleParameters><EPHEMERIS_TYPE>0</EPHEMERIS_TYPE><CLASSIFICATION_TYPE>U</CLASSIFICATION_TYPE><NORAD_CAT_ID>37188</NORAD_CAT_ID><ELEMENT_SET_NO>999</ELEMENT_SET_NO><REV_AT_EPOCH>68787</REV_AT_EPOCH><BSTAR>.92690336E-4</BSTAR><MEAN_MOTION_DOT>-.87E-6</MEAN_MOTION_DOT><MEAN_MOTION_DDOT>0</MEAN_MOTION_DDOT></tleParameters></data></segment></body></omm>
<omm id="CCSDS_OMM_VERS" version="2.0">
<header><CREATION_DATE/><ORIGINATOR/></header><body><segment><metadata><OBJECT_NAME>GLOBALSTAR M074</OBJECT_NAME><OBJECT_ID>2010-054B</OBJECT_ID><CENTER_NAME>EARTH</CENTER_NAME><REF_FRAME>TEME</REF_FRAME><TIME_SYSTEM>UTC</TIME_SYSTEM><MEAN_ELEMENT_THEORY>SGP4</MEAN_ELEMENT_THEORY></metadata><data><meanElements><EPOCH>2025-09-15T15:44:28.029408</EPOCH><MEAN_MOTION>12.62271321</MEAN_MOTION><ECCENTRICITY>.00002623</ECCENTRICITY><INCLINATION>52.0000</INCLINATION><RA_OF_ASC_NODE>223.6947</RA_OF_ASC_NODE><ARG_OF_PERICENTER>75.0066</ARG_OF_PERICENTER><MEAN_ANOMALY>96.2895</MEAN_ANOMALY></meanElements><tleParameters><EPHEMERIS_TYPE>0</EPHEMERIS_TYPE><CLASSIFICATION_TYPE>U</CLASSIFICATION_TYPE><NORAD_CAT_ID>37189</NORAD_CAT_ID><ELEMENT_SET_NO>999</ELEMENT_SET_NO><REV_AT_EPOCH>68848</REV_AT_EPOCH><BSTAR>.36619184E-4</BSTAR><MEAN_MOTION_DOT>-.97E-6</MEAN_MOTION_DOT><MEAN_MOTION_DDOT>0</MEAN_MOTION_DDOT></tleParameters></data></segment></body></omm>
<omm id="CCSDS_OMM_VERS" version="2.0">
<header><CREATION_DATE/><ORIGINATOR/></header><body><segment><metadata><OBJECT_NAME>GLOBALSTAR M076</OBJECT_NAME><OBJECT_ID>2010-054C</OBJECT_ID><CENTER_NAME>EARTH</CENTER_NAME><REF_FRAME>TEME</REF_FRAME><TIME_SYSTEM>UTC</TIME_SYSTEM><MEAN_ELEMENT_THEORY>SGP4</MEAN_ELEMENT_THEORY></metadata><data><meanElements><EPOCH>2025-09-15T16:22:23.882304</EPOCH><MEAN_MOTION>12.62265252</MEAN_MOTION><ECCENTRICITY>.00003944</ECCENTRICITY><INCLINATION>52.0015</INCLINATION><RA_OF_ASC_NODE>223.7937</RA_OF_ASC_NODE><ARG_OF_PERICENTER>108.5111</ARG_OF_PERICENTER><MEAN_ANOMALY>62.4247</MEAN_ANOMALY></meanElements><tleParameters><EPHEMERIS_TYPE>0</EPHEMERIS_TYPE><CLASSIFICATION_TYPE>U</CLASSIFICATION_TYPE><NORAD_CAT_ID>37190</NORAD_CAT_ID><ELEMENT_SET_NO>999</ELEMENT_SET_NO><REV_AT_EPOCH>68820</REV_AT_EPOCH><BSTAR>.76769098E-4</BSTAR><MEAN_MOTION_DOT>-.9E-6</MEAN_MOTION_DOT><MEAN_MOTION_DDOT>0</MEAN_MOTION_DDOT></tleParameters></data></segment></body></omm>
<omm id="CCSDS_OMM_VERS" version="2.0">
<header><CREATION_DATE/><ORIGINATOR/></header><body><segment><metadata><OBJECT_NAME>GLOBALSTAR M077</OBJECT_NAME><OBJECT_ID>2010-054D</OBJECT_ID><CENTER_NAME>EARTH</CENTER_NAME><REF_FRAME>TEME</REF_FRAME><TIME_SYSTEM>UTC</TIME_SYSTEM><MEAN_ELEMENT_THEORY>SGP4</MEAN_ELEMENT_THEORY></metadata><data><meanElements><EPOCH>2025-09-15T12:12:01.967904</EPOCH><MEAN_MOTION>12.62323327</MEAN_MOTION><ECCENTRICITY>.00005592</ECCENTRICITY><INCLINATION>52.0067</INCLINATION><RA_OF_ASC_NODE>181.1894</RA_OF_ASC_NODE><ARG_OF_PERICENTER>64.8216</ARG_OF_PERICENTER><MEAN_ANOMALY>106.5588</MEAN_ANOMALY></meanElements><tleParameters><EPHEMERIS_TYPE>0</EPHEMERIS_TYPE><CLASSIFICATION_TYPE>U</CLASSIFICATION_TYPE><NORAD_CAT_ID>37191</NORAD_CAT_ID><ELEMENT_SET_NO>999</ELEMENT_SET_NO><REV_AT_EPOCH>68855</REV_AT_EPOCH><BSTAR>.39298503E-4</BSTAR><MEAN_MOTION_DOT>-.97E-6</MEAN_MOTION_DOT><MEAN_MOTION_DDOT>0</MEAN_MOTION_DDOT></tleParameters></data></segment></body></omm>

</ndm>
